H1 CPF  1  HTS 2022  7  3 12  6841 larets           NONE
H2  0304206 5557    27944 2022 07 03  0  0  0 2022 07 08  0  0  0   180 1 1  0 0 0
H5  0.0560 
H9 
10 0 59765  46440.00000  0    3968719.630     433957.903   -5822957.157
10 0 59765  46620.00000  0    2867127.983     -65749.517   -6452200.164
10 0 59765  46800.00000  0    1648897.333    -532624.076   -6845817.663
10 0 59765  46980.00000  0     359375.359    -947292.548   -6989695.313
10 0 59765  47160.00000  0    -953141.009   -1293524.205   -6878762.440
10 0 59765  47340.00000  0   -2239199.556   -1558848.923   -6517139.436
10 0 59765  47520.00000  0   -3450031.940   -1734997.182   -5917983.758
10 0 59765  47700.00000  0   -4539381.281   -1818149.362   -5103039.866
10 0 59765  47880.00000  0   -5465272.069   -1808990.235   -4101900.100
10 0 59765  48060.00000  0   -6191654.741   -1712563.531   -2950978.837
10 0 59765  48240.00000  0   -6689856.717   -1537931.302   -1692222.950
10 0 59765  48420.00000  0   -6939768.412   -1297649.502    -371593.877
10 0 59765  48600.00000  0   -6930701.581   -1007082.411     962625.088
10 0 59765  48780.00000  0   -6661868.021    -683587.681    2261627.351
10 0 59765  48960.00000  0   -6142449.914    -345617.344    3477906.964
10 0 59765  49140.00000  0   -5391258.823     -11779.872    4567027.088
10 0 59765  49320.00000  0   -4436001.819     300086.382    5489253.161
10 0 59765  49500.00000  0   -3312204.925     573781.904    6210984.652
10 0 59765  49680.00000  0   -2061848.846     795516.856    6705946.526
10 0 59765  49860.00000  0    -731773.961     954550.095    6956107.036
10 0 59765  50040.00000  0     628079.611    1043674.534    6952298.878
10 0 59765  50220.00000  0    1966532.142    1059530.103    6694539.314
10 0 59765  50400.00000  0    3233072.921    1002735.204    6192047.879
10 0 59765  50580.00000  0    4379763.100     877830.214    5462956.281
10 0 59765  50760.00000  0    5363069.942     693033.893    4533706.580
10 0 59765  50940.00000  0    6145568.580     459818.933    3438148.250
10 0 59765  51120.00000  0    6697441.474     192324.544    2216338.252
10 0 59765  51300.00000  0    6997693.325     -93372.383     913080.035
10 0 59765  51480.00000  0    7035021.415    -380093.126    -423745.681
10 0 59765  51660.00000  0    6808285.042    -650456.229   -1744995.099
10 0 59765  51840.00000  0    6326540.384    -887793.273   -3002134.448
10 0 59765  52020.00000  0    5608640.539   -1077030.058   -4149079.838
10 0 59765  52200.00000  0    4682428.577   -1205485.097   -5143919.221
10 0 59765  52380.00000  0    3583576.005   -1263543.687   -5950442.931
10 0 59765  52560.00000  0    2354133.001   -1245180.507   -6539429.088
10 0 59765  52740.00000  0    1040864.967   -1148305.586   -6889645.981
10 0 59765  52920.00000  0    -306549.783    -974923.658   -6988555.632
10 0 59765  53100.00000  0   -1637395.076    -731105.369   -6832712.384
10 0 59765  53280.00000  0   -2901804.651    -426770.552   -6427857.427
10 0 59765  53460.00000  0   -4052604.511     -75291.040   -5788709.365
10 0 59765  53640.00000  0   -5047058.610     307073.057   -4938463.841
10 0 59765  53820.00000  0   -5848468.218     701885.360   -3908001.195
10 0 59765  54000.00000  0   -6427565.934    1089370.332   -2734815.036
10 0 59765  54180.00000  0   -6763641.380    1449342.439   -1461679.533
10 0 59765  54360.00000  0   -6845341.004    1762183.255    -135096.585
10 0 59765  54540.00000  0   -6671094.102    2009817.705    1196424.634
10 0 59765  54720.00000  0   -6249134.091    2176638.480    2484176.181
10 0 59765  54900.00000  0   -5597117.464    2250333.190    3681070.557
10 0 59765  55080.00000  0   -4741356.413    2222566.021    4743390.323
10 0 59765  55260.00000  0   -3715710.753    2089480.741    5632387.879
10 0 59765  55440.00000  0   -2560205.892    1852006.166    6315678.684
10 0 59765  55620.00000  0   -1319437.483    1515951.862    6768389.165
10 0 59765  55800.00000  0     -40831.754    1091887.857    6974019.908
10 0 59765  55980.00000  0    1227161.064     594816.534    6925011.545
10 0 59765  56160.00000  0    2436885.064      43648.100    6623013.467
10 0 59765  56340.00000  0    3543257.157    -539506.517    6078849.493
10 0 59765  56520.00000  0    4505454.328   -1130206.874    5312174.232
10 0 59765  56700.00000  0    5288450.823   -1702691.180    4350816.946
10 0 59765  56880.00000  0    5864348.478   -2230984.691    3229822.458
10 0 59765  57060.00000  0    6213442.354   -2690064.362    1990202.637
10 0 59765  57240.00000  0    6324961.447   -3057025.127     677434.779
10 0 59765  57420.00000  0    6197444.593   -3312187.574    -660239.141
10 0 59765  57600.00000  0    5838721.294   -3440086.233   -1973643.792
10 0 59765  57780.00000  0    5265491.598   -3430280.848   -3214545.361
10 0 59765  57960.00000  0    4502533.058   -3277948.228   -4337475.888
10 0 59765  58140.00000  0    3581582.072   -2984227.709   -5301427.462
10 0 59765  58320.00000  0    2539952.591   -2556303.522   -6071342.792
10 0 59765  58500.00000  0    1418975.747   -2007230.054   -6619348.724
10 0 59765  58680.00000  0     262331.615   -1355513.315   -6925711.896
10 0 59765  58860.00000  0    -885661.571    -624465.073   -6979488.151
10 0 59765  59040.00000  0   -1981731.412     158637.380   -6778864.132
10 0 59765  59220.00000  0   -2985259.647     963561.791   -6331196.107
10 0 59765  59400.00000  0   -3859765.340    1758270.848   -5652749.608
10 0 59765  59580.00000  0   -4574226.752    2510178.026   -4768148.890
10 0 59765  59760.00000  0   -5104201.218    3187472.427   -3709532.757
10 0 59765  59940.00000  0   -5432692.948    3760458.560   -2515430.557
10 0 59765  60120.00000  0   -5550733.732    4202856.221   -1229389.807
10 0 59765  60300.00000  0   -5457643.890    4492997.946     101608.327
10 0 59765  60480.00000  0   -5160954.010    4614861.560    1428887.550
10 0 59765  60660.00000  0   -4675981.856    4558878.318    2703896.654
10 0 59765  60840.00000  0   -4025084.921    4322472.700    3880022.469
10 0 59765  61020.00000  0   -3236632.901    3910310.835    4914315.627
10 0 59765  61200.00000  0   -2343758.170    3334245.842    5769059.661
10 0 59765  61380.00000  0   -1382945.360    2612967.284    6413125.651
10 0 59765  61560.00000  0    -392527.858    1771373.822    6823066.631
10 0 59765  61740.00000  0     588837.802     839700.551    6983927.145
10 0 59765  61920.00000  0    1523667.957    -147565.580    6889761.523
10 0 59765  62100.00000  0    2377071.153   -1152949.013    6543850.692
10 0 59765  62280.00000  0    3118046.951   -2137393.656    5958613.957
10 0 59765  62460.00000  0    3720626.294   -3061773.126    5155210.102
10 0 59765  62640.00000  0    4164811.700   -3888453.406    4162826.643
10 0 59765  62820.00000  0    4437280.344   -4582850.186    3017666.845
10 0 59765  63000.00000  0    4531816.538   -5114913.714    1761652.866
10 0 59765  63180.00000  0    4449446.660   -5460465.964     440882.580
10 0 59765  63360.00000  0    4198261.518   -5602317.008    -896100.307
10 0 59765  63540.00000  0    3792935.510   -5531100.337   -2200148.252
10 0 59765  63720.00000  0    3253961.617   -5245776.968   -3423382.533
10 0 59765  63900.00000  0    2606646.079   -4753780.299   -4521003.596
10 0 59765  64080.00000  0    1879917.461   -4070799.542   -5452956.098
10 0 59765  64260.00000  0    1105021.294   -3220219.976   -6185376.250
10 0 59765  64440.00000  0     314169.541   -2232262.953   -6691777.282
10 0 59765  64620.00000  0    -460798.169   -1142866.916   -6953948.444
10 0 59765  64800.00000  0   -1189682.959       7644.337   -6962549.067
10 0 59765  64980.00000  0   -1845083.679    1176052.664   -6717396.738
10 0 59765  65160.00000  0   -2403409.351    2317849.072   -6227452.640
10 0 59765  65340.00000  0   -2845716.622    3388905.452   -5510511.266
10 0 59765  65520.00000  0   -3158352.511    4347168.909   -4592597.241
10 0 59765  65700.00000  0   -3333380.923    5154322.108   -3507069.342
10 0 59765  65880.00000  0   -3368770.008    5777338.228   -2293446.726
10 0 59765  66060.00000  0   -3268333.534    6189865.729    -995997.598
10 0 59765  66240.00000  0   -3041424.848    6373378.995     337875.113
10 0 59765  66420.00000  0   -2702396.696    6318027.193    1659387.755
10 0 59765  66600.00000  0   -2269845.776    6023133.155    2920204.617
10 0 59765  66780.00000  0   -1765677.331    5497301.471    4074243.616
10 0 59765  66960.00000  0   -1214052.023    4758146.861    5079376.022
10 0 59765  67140.00000  0    -640265.154    3831661.652    5898960.282
10 0 59765  67320.00000  0     -69613.003    2751256.108    6503150.893
10 0 59765  67500.00000  0     473697.957    1556520.019    6869945.545
10 0 59765  67680.00000  0     967558.152     291758.934    6985947.795
10 0 59765  67860.00000  0    1392841.268    -995642.460    6846831.832
10 0 59765  68040.00000  0    1734140.191   -2256978.705    6457507.632
10 0 59765  68220.00000  0    1980330.086   -3444055.952    5831977.640
10 0 59765  68400.00000  0    2124939.168   -4511040.173    4992879.875
10 0 59765  68580.00000  0    2166313.543   -5416252.804    3970720.599
10 0 59765  68760.00000  0    2107572.523   -6123851.342    2802811.327
10 0 59765  68940.00000  0    1956345.899   -6605317.940    1531924.663
10 0 59765  69120.00000  0    1724305.708   -6840675.143     204717.711
10 0 59765  69300.00000  0    1426512.544   -6819370.813   -1130019.404
10 0 59765  69480.00000  0    1080602.839   -6540770.867   -2423225.314
10 0 59765  69660.00000  0     705861.558   -6014217.069   -3627437.517
10 0 59765  69840.00000  0     322241.556   -5258662.243   -4698580.100
10 0 59765  70020.00000  0     -50622.769   -4301910.300   -5597592.711
10 0 59765  70200.00000  0    -394357.319   -3179509.805   -6291835.412
10 0 59765  70380.00000  0    -692698.849   -1933362.136   -6756226.502
10 0 59765  70560.00000  0    -932219.052    -610112.611   -6974086.027
10 0 59765  70740.00000  0   -1102895.944     740608.721   -6937676.333
99
